{"type":"FeatureCollection","features":[{"type":"Feature","id":4694,"geometry":{"type":"Polygon","coordinates":[[[-43.315238412999911,-22.867824440323663],[-43.313484401999908,-22.867824435323651],[-43.313484407999908,-22.867192335323704],[-43.311535515999935,-22.867192307323663],[-43.311535558999935,-22.865386307323714],[-43.315238404999945,-22.865386340323703],[-43.315238412999911,-22.867824440323663]]]},"properties":{"PROCESSO":"806774/1977","NUMERO":806774,"ANO":1977,"FASE":"REQUERIMENTO DE LAVRA","NOME":"Braminex Brasileira de Mármore Exportadora S A.","SUBS":"GRANITO","USO":"Revestimento","AREA_HA":8.8599999999999994,"UF":"RJ","ULT_EVENTO":"1811 - ÁREA BLOQUEADA JUDICIALMENTE PUBL EM 09/10/2025","ID":"{0A933853-C1AE-4806-A541-8BEBD9692B02}","FID":4694,"DSProcesso":"806.774/1977"}}]}